STARLINK-36609          
1 67582U 26016X   26049.14007431  .00137583  00000+0  90713-3 0  9993
2 67582  97.2841 108.6259 0001011 112.9339 247.2033 15.75225102  3726
STARLINK-36577          
1 67583U 26016Y   26049.10864563  .00250861  00000+0  12669-2 0  9995
2 67583  97.2838 108.6691 0001446  95.1353 265.0081 15.80923397  3721
STARLINK-36419          
1 67584U 26016Z   26049.25002315  .00007353  00000+0  50064-4 0  9990
2 67584  97.2838 108.8195 0001444  99.3347 343.7469 15.75217400  4922
STARLINK-36560          
1 67585U 26016AA  26049.16624789  .00297921  00000+0  14974-2 0  9996
2 67585  97.2838 108.7444 0001681  97.9539 262.1920 15.80906317  3731
NAVSTAR 85 (USA 581)    
1 67588U 26017A   26048.53936881  .00000028  00000+0  00000+0 0  9991
2 67588  55.0081  93.5564 0000946  45.2724 314.8210  2.00561228429213
STARLINK-36641          
1 67589U 26018A   26049.24463830  .00149268  00000+0  98222-3 0  9998
2 67589  97.2836 114.0446 0001296  54.6651 305.4735 15.75237413  4242
STARLINK-36376          
1 67590U 26018B   26049.25002315 -.01178025  00000+0 -85431-2 0  9991
2 67590  97.2841 114.0952 0001292  72.5385  59.6331 15.76065438  4271
STARLINK-36391          
1 67591U 26018C   26049.22417038  .00220564  00000+0  11187-2 0  9991
2 67591  97.2840 114.0728 0000773  60.6386 299.4960 15.80906864  4245
STARLINK-36603          
1 67592U 26018D   26049.16025955 -.00678543  00000+0 -39793-2 0  9997
2 67592  97.2840 114.0068 0000292  43.2217 316.9074 15.79959629  4234
STARLINK-36634          
1 67593U 26018E   26049.22227933  .00180737  00000+0  92155-3 0  9998
2 67593  97.2841 114.0753 0001274  69.4345 290.7060 15.80895483  4244
STARLINK-36638          
1 67594U 26018F   26049.22116890  .00140328  00000+0  71929-3 0  9996
2 67594  97.2842 114.0766 0001343  74.6596 285.4821 15.80886949  4246
STARLINK-36628          
1 67595U 26018G   26049.25002315 -.00108821  00000+0 -73707-3 0  9996
2 67595  97.2842 114.0800 0000799  88.3310  12.3101 15.75221241  4224
