CCSDS_OMM_VERS = 2.0
CREATION_DATE  = 
ORIGINATOR     = 

OBJECT_NAME    = STARLINK-36609
OBJECT_ID      = 2026-016X
CENTER_NAME    = EARTH
REF_FRAME      = TEME
TIME_SYSTEM    = UTC
MEAN_ELEMENT_THEORY = SGP/SGP4

EPOCH          = 2026-02-18T03:21:42.420384
MEAN_MOTION    = 15.75225102
ECCENTRICITY   = .00010117
INCLINATION    = 97.2841
RA_OF_ASC_NODE = 108.6259
ARG_OF_PERICENTER = 112.9339
MEAN_ANOMALY   = 247.2033

EPHEMERIS_TYPE = 0
CLASSIFICATION_TYPE = U
NORAD_CAT_ID   = 67582
ELEMENT_SET_NO = 999
REV_AT_EPOCH   = 372
BSTAR          = .90713181E-3
MEAN_MOTION_DOT = .137583E-2
MEAN_MOTION_DDOT = 0

CCSDS_OMM_VERS = 2.0
CREATION_DATE  = 
ORIGINATOR     = 

OBJECT_NAME    = STARLINK-36577
OBJECT_ID      = 2026-016Y
CENTER_NAME    = EARTH
REF_FRAME      = TEME
TIME_SYSTEM    = UTC
MEAN_ELEMENT_THEORY = SGP/SGP4

EPOCH          = 2026-02-18T02:36:26.982432
MEAN_MOTION    = 15.80923397
ECCENTRICITY   = .00014465
INCLINATION    = 97.2838
RA_OF_ASC_NODE = 108.6691
ARG_OF_PERICENTER = 95.1353
MEAN_ANOMALY   = 265.0081

EPHEMERIS_TYPE = 0
CLASSIFICATION_TYPE = U
NORAD_CAT_ID   = 67583
ELEMENT_SET_NO = 999
REV_AT_EPOCH   = 372
BSTAR          = .12668848E-2
MEAN_MOTION_DOT = .250861E-2
MEAN_MOTION_DDOT = 0

CCSDS_OMM_VERS = 2.0
CREATION_DATE  = 
ORIGINATOR     = 

OBJECT_NAME    = STARLINK-36419
OBJECT_ID      = 2026-016Z
CENTER_NAME    = EARTH
REF_FRAME      = TEME
TIME_SYSTEM    = UTC
MEAN_ELEMENT_THEORY = SGP/SGP4

EPOCH          = 2026-02-18T06:00:02.000160
MEAN_MOTION    = 15.75217400
ECCENTRICITY   = .0001444
INCLINATION    = 97.2838
RA_OF_ASC_NODE = 108.8195
ARG_OF_PERICENTER = 99.3347
MEAN_ANOMALY   = 343.7469

EPHEMERIS_TYPE = 0
CLASSIFICATION_TYPE = U
NORAD_CAT_ID   = 67584
ELEMENT_SET_NO = 999
REV_AT_EPOCH   = 492
BSTAR          = .50064101E-4
MEAN_MOTION_DOT = .7353E-4
MEAN_MOTION_DDOT = 0

CCSDS_OMM_VERS = 2.0
CREATION_DATE  = 
ORIGINATOR     = 

OBJECT_NAME    = STARLINK-36560
OBJECT_ID      = 2026-016AA
CENTER_NAME    = EARTH
REF_FRAME      = TEME
TIME_SYSTEM    = UTC
MEAN_ELEMENT_THEORY = SGP/SGP4

EPOCH          = 2026-02-18T03:59:23.817696
MEAN_MOTION    = 15.80906317
ECCENTRICITY   = .00016813
INCLINATION    = 97.2838
RA_OF_ASC_NODE = 108.7444
ARG_OF_PERICENTER = 97.9539
MEAN_ANOMALY   = 262.1920

EPHEMERIS_TYPE = 0
CLASSIFICATION_TYPE = U
NORAD_CAT_ID   = 67585
ELEMENT_SET_NO = 999
REV_AT_EPOCH   = 373
BSTAR          = .1497401E-2
MEAN_MOTION_DOT = .297921E-2
MEAN_MOTION_DDOT = 0

CCSDS_OMM_VERS = 2.0
CREATION_DATE  = 
ORIGINATOR     = 

OBJECT_NAME    = NAVSTAR 85 (USA 581)
OBJECT_ID      = 2026-017A
CENTER_NAME    = EARTH
REF_FRAME      = TEME
TIME_SYSTEM    = UTC
MEAN_ELEMENT_THEORY = SGP/SGP4

EPOCH          = 2026-02-17T12:56:41.465184
MEAN_MOTION    = 2.00561228
ECCENTRICITY   = .0000946
INCLINATION    = 55.0081
RA_OF_ASC_NODE = 93.5564
ARG_OF_PERICENTER = 45.2724
MEAN_ANOMALY   = 314.8210

EPHEMERIS_TYPE = 0
CLASSIFICATION_TYPE = U
NORAD_CAT_ID   = 67588
ELEMENT_SET_NO = 999
REV_AT_EPOCH   = 42921
BSTAR          = 0
MEAN_MOTION_DOT = .28E-6
MEAN_MOTION_DDOT = 0

CCSDS_OMM_VERS = 2.0
CREATION_DATE  = 
ORIGINATOR     = 

OBJECT_NAME    = STARLINK-36641
OBJECT_ID      = 2026-018A
CENTER_NAME    = EARTH
REF_FRAME      = TEME
TIME_SYSTEM    = UTC
MEAN_ELEMENT_THEORY = SGP/SGP4

EPOCH          = 2026-02-18T05:52:16.749120
MEAN_MOTION    = 15.75237413
ECCENTRICITY   = .00012967
INCLINATION    = 97.2836
RA_OF_ASC_NODE = 114.0446
ARG_OF_PERICENTER = 54.6651
MEAN_ANOMALY   = 305.4735

EPHEMERIS_TYPE = 0
CLASSIFICATION_TYPE = U
NORAD_CAT_ID   = 67589
ELEMENT_SET_NO = 999
REV_AT_EPOCH   = 424
BSTAR          = .98221864E-3
MEAN_MOTION_DOT = .149268E-2
MEAN_MOTION_DDOT = 0

CCSDS_OMM_VERS = 2.0
CREATION_DATE  = 
ORIGINATOR     = 

OBJECT_NAME    = STARLINK-36376
OBJECT_ID      = 2026-018B
CENTER_NAME    = EARTH
REF_FRAME      = TEME
TIME_SYSTEM    = UTC
MEAN_ELEMENT_THEORY = SGP/SGP4

EPOCH          = 2026-02-18T06:00:02.000160
MEAN_MOTION    = 15.76065438
ECCENTRICITY   = .00012921
INCLINATION    = 97.2841
RA_OF_ASC_NODE = 114.0952
ARG_OF_PERICENTER = 72.5385
MEAN_ANOMALY   = 59.6331

EPHEMERIS_TYPE = 0
CLASSIFICATION_TYPE = U
NORAD_CAT_ID   = 67590
ELEMENT_SET_NO = 999
REV_AT_EPOCH   = 427
BSTAR          = -.85430769E-2
MEAN_MOTION_DOT = -.1178025E-1
MEAN_MOTION_DDOT = 0

CCSDS_OMM_VERS = 2.0
CREATION_DATE  = 
ORIGINATOR     = 

OBJECT_NAME    = STARLINK-36391
OBJECT_ID      = 2026-018C
CENTER_NAME    = EARTH
REF_FRAME      = TEME
TIME_SYSTEM    = UTC
MEAN_ELEMENT_THEORY = SGP/SGP4

EPOCH          = 2026-02-18T05:22:48.320832
MEAN_MOTION    = 15.80906864
ECCENTRICITY   = .00007736
INCLINATION    = 97.2840
RA_OF_ASC_NODE = 114.0728
ARG_OF_PERICENTER = 60.6386
MEAN_ANOMALY   = 299.4960

EPHEMERIS_TYPE = 0
CLASSIFICATION_TYPE = U
NORAD_CAT_ID   = 67591
ELEMENT_SET_NO = 999
REV_AT_EPOCH   = 424
BSTAR          = .11187126E-2
MEAN_MOTION_DOT = .220564E-2
MEAN_MOTION_DDOT = 0

CCSDS_OMM_VERS = 2.0
CREATION_DATE  = 
ORIGINATOR     = 

OBJECT_NAME    = STARLINK-36603
OBJECT_ID      = 2026-018D
CENTER_NAME    = EARTH
REF_FRAME      = TEME
TIME_SYSTEM    = UTC
MEAN_ELEMENT_THEORY = SGP/SGP4

EPOCH          = 2026-02-18T03:50:46.425120
MEAN_MOTION    = 15.79959629
ECCENTRICITY   = .00002922
INCLINATION    = 97.2840
RA_OF_ASC_NODE = 114.0068
ARG_OF_PERICENTER = 43.2217
MEAN_ANOMALY   = 316.9074

EPHEMERIS_TYPE = 0
CLASSIFICATION_TYPE = U
NORAD_CAT_ID   = 67592
ELEMENT_SET_NO = 999
REV_AT_EPOCH   = 423
BSTAR          = -.39792527E-2
MEAN_MOTION_DOT = -.678543E-2
MEAN_MOTION_DDOT = 0

CCSDS_OMM_VERS = 2.0
CREATION_DATE  = 
ORIGINATOR     = 

OBJECT_NAME    = STARLINK-36634
OBJECT_ID      = 2026-018E
CENTER_NAME    = EARTH
REF_FRAME      = TEME
TIME_SYSTEM    = UTC
MEAN_ELEMENT_THEORY = SGP/SGP4

EPOCH          = 2026-02-18T05:20:04.934112
MEAN_MOTION    = 15.80895483
ECCENTRICITY   = .00012746
INCLINATION    = 97.2841
RA_OF_ASC_NODE = 114.0753
ARG_OF_PERICENTER = 69.4345
MEAN_ANOMALY   = 290.7060

EPHEMERIS_TYPE = 0
CLASSIFICATION_TYPE = U
NORAD_CAT_ID   = 67593
ELEMENT_SET_NO = 999
REV_AT_EPOCH   = 424
BSTAR          = .92155065E-3
MEAN_MOTION_DOT = .180737E-2
MEAN_MOTION_DDOT = 0

CCSDS_OMM_VERS = 2.0
CREATION_DATE  = 
ORIGINATOR     = 

OBJECT_NAME    = STARLINK-36638
OBJECT_ID      = 2026-018F
CENTER_NAME    = EARTH
REF_FRAME      = TEME
TIME_SYSTEM    = UTC
MEAN_ELEMENT_THEORY = SGP/SGP4

EPOCH          = 2026-02-18T05:18:28.992960
MEAN_MOTION    = 15.80886949
ECCENTRICITY   = .00013439
INCLINATION    = 97.2842
RA_OF_ASC_NODE = 114.0766
ARG_OF_PERICENTER = 74.6596
MEAN_ANOMALY   = 285.4821

EPHEMERIS_TYPE = 0
CLASSIFICATION_TYPE = U
NORAD_CAT_ID   = 67594
ELEMENT_SET_NO = 999
REV_AT_EPOCH   = 424
BSTAR          = .71929406E-3
MEAN_MOTION_DOT = .140328E-2
MEAN_MOTION_DDOT = 0

CCSDS_OMM_VERS = 2.0
CREATION_DATE  = 
ORIGINATOR     = 

OBJECT_NAME    = STARLINK-36628
OBJECT_ID      = 2026-018G
CENTER_NAME    = EARTH
REF_FRAME      = TEME
TIME_SYSTEM    = UTC
MEAN_ELEMENT_THEORY = SGP/SGP4

EPOCH          = 2026-02-18T06:00:02.000160
MEAN_MOTION    = 15.75221241
ECCENTRICITY   = .00007996
INCLINATION    = 97.2842
RA_OF_ASC_NODE = 114.0800
ARG_OF_PERICENTER = 88.3310
MEAN_ANOMALY   = 12.3101

EPHEMERIS_TYPE = 0
CLASSIFICATION_TYPE = U
NORAD_CAT_ID   = 67595
ELEMENT_SET_NO = 999
REV_AT_EPOCH   = 422
BSTAR          = -.73706982E-3
MEAN_MOTION_DOT = -.108821E-2
MEAN_MOTION_DDOT = 0

